{
  "53973": {
    "noradId": "53973",
    "tle": [
      "1 53973C 22125K   26035.19006944  .00003472  00000+0  21770-3 0   354",
      "2 53973  53.2175  14.3857 0001243  91.6261  12.2477 15.08837651    13"
    ]
  },
  "53974": {
    "noradId": "53974",
    "tle": [
      "1 53974C 22125L   26035.19006944  .00003922  00000+0  24596-3 0   354",
      "2 53974  53.2171 354.1103 0001414  86.7372 187.3196 15.08831116    19"
    ]
  },
  "53975": {
    "noradId": "53975",
    "tle": [
      "1 53975C 22125M   26035.19284722 -.00091612  00000+0 -57434-2 0   358",
      "2 53975  53.2182   9.0702 0001316  97.0534 189.6460 15.08938700    15"
    ]
  },
  "53976": {
    "noradId": "53976",
    "tle": [
      "1 53976C 22125N   26035.19076389  .00000429  00000+0  26936-4 0   356",
      "2 53976  53.2177 354.6241 0001368  95.8167 281.6898 15.08832472    19"
    ]
  },
  "53977": {
    "noradId": "53977",
    "tle": [
      "1 53977C 22125P   26035.19006944 -.00009998  00000+0 -62704-3 0   351",
      "2 53977  53.2179   9.6180 0001409  86.5551 264.6780 15.08843907    17"
    ]
  },
  "53978": {
    "noradId": "53978",
    "tle": [
      "1 53978C 22125Q   26035.18659722 -.00005959  00000+0 -37380-3 0   354",
      "2 53978  53.2169   9.4367 0001721  89.3309 343.1709 15.08833253    18"
    ]
  },
  "53979": {
    "noradId": "53979",
    "tle": [
      "1 53979C 22125R   26035.18659722 -.00004263  00000+0 -26738-3 0   357",
      "2 53979  53.2165   9.5146 0001379  86.5239 305.9145 15.08837182    16"
    ]
  },
  "53980": {
    "noradId": "53980",
    "tle": [
      "1 53980C 22125S   26035.19006944 -.00016770  00000+0 -10521-2 0   350",
      "2 53980  53.2179   9.2287 0001306  89.9386 101.5650 15.08839655    14"
    ]
  },
  "53981": {
    "noradId": "53981",
    "tle": [
      "1 53981C 22125T   26035.19006944 -.00002439  00000+0 -15300-3 0   359",
      "2 53981  53.2180 354.2815 0001402  89.8776 104.0857 15.08832998    16"
    ]
  },
  "53982": {
    "noradId": "53982",
    "tle": [
      "1 53982C 22125U   26035.19145833 -.00000913  00000+0 -57261-4 0   359",
      "2 53982  53.2185   4.5360 0001419  88.0323 318.2842 15.08839559    12"
    ]
  },
  "53984": {
    "noradId": "53984",
    "tle": [
      "1 53984C 22125W   26035.18868056 -.00019823  00000+0 -12435-2 0   351",
      "2 53984  53.2184   4.6675 0001561  91.9935 239.1936 15.08846227    18"
    ]
  },
  "53985": {
    "noradId": "53985",
    "tle": [
      "1 53985C 22125X   26035.18659722 -.00010329  00000+0 -64799-3 0   353",
      "2 53985  53.2182   4.7548 0001406  89.0293 190.7679 15.08834315    11"
    ]
  },
  "53986": {
    "noradId": "53986",
    "tle": [
      "1 53986C 22125Y   26035.19006944 -.00001196  00000+0 -74981-4 0   354",
      "2 53986  53.2175 354.1876 0001560  82.5268 151.4742 15.08834858    18"
    ]
  },
  "53988": {
    "noradId": "53988",
    "tle": [
      "1 53988C 22125AA  26035.18937500  .00002089  00000+0  13099-3 0   358",
      "2 53988  53.2185   4.6250 0001466  92.2180 262.7252 15.08835814    15"
    ]
  },
  "53991": {
    "noradId": "53991",
    "tle": [
      "1 53991C 22125AD  26035.18937500 -.00000946  00000+0 -59350-4 0   355",
      "2 53991  53.2183 354.4418 0001388  93.2852 336.8018 15.08833577    16"
    ]
  },
  "53992": {
    "noradId": "53992",
    "tle": [
      "1 53992C 22125AE  26035.19284722  .00006416  00000+0  40241-3 0   352",
      "2 53992  53.2181   4.4900 0001521  79.9586 353.9713 15.08823825    14"
    ]
  },
  "53993": {
    "noradId": "53993",
    "tle": [
      "1 53993C 22125AF  26035.19145833  .00007499  00000+0  47017-3 0   352",
      "2 53993  53.2175 359.2560 0001375  89.6537 104.3381 15.08836570    12"
    ]
  },
  "53994": {
    "noradId": "53994",
    "tle": [
      "1 53994C 22125AG  26035.18104167 -.00010815  00000+0 -67821-3 0   350",
      "2 53994  53.2169   4.4250 0001395  88.8428 340.9638 15.08846859    17"
    ]
  },
  "53995": {
    "noradId": "53995",
    "tle": [
      "1 53995C 22125AH  26035.18729167  .00013347  00000+0  83733-3 0   355",
      "2 53995  53.2174   4.4793 0001503  88.7646 335.0277 15.08808684    16"
    ]
  },
  "53996": {
    "noradId": "53996",
    "tle": [
      "1 53996C 22125AJ  26035.19006944 -.00003185  00000+0 -19980-3 0   352",
      "2 53996  53.2170   4.3461 0001400  85.9468  52.9749 15.08830981    15"
    ]
  },
  "53997": {
    "noradId": "53997",
    "tle": [
      "1 53997C 22125AK  26035.18798611 -.00029766  00000+0 -18668-2 0   355",
      "2 53997  53.2171 354.7437 0001235  85.6053 216.7187 15.08862422    16"
    ]
  },
  "53998": {
    "noradId": "53998",
    "tle": [
      "1 53998C 22125AL  26035.18659722  .00004277  00000+0  26823-3 0   356",
      "2 53998  53.2171   4.2833 0001400  88.7306  71.3572 15.08831605    15"
    ]
  },
  "53999": {
    "noradId": "53999",
    "tle": [
      "1 53999C 22125AM  26035.19006944 -.00003631  00000+0 -22764-3 0   355",
      "2 53999  53.2171   4.4236 0001439  92.3231   6.4733 15.08849493    17"
    ]
  },
  "54000": {
    "noradId": "54000",
    "tle": [
      "1 54000C 22125AN  26035.19006944 -.00003228  00000+0 -20244-3 0   352",
      "2 54000  53.2174 354.6954 0001560  93.6996 239.9773 15.08838639    15"
    ]
  },
  "54002": {
    "noradId": "54002",
    "tle": [
      "1 54002C 22125AQ  26035.18729167  .00014269  00000+0  89439-3 0   358",
      "2 54002  53.2176 354.2554 0001456  79.6420 119.1274 15.08838993    19"
    ]
  },
  "54003": {
    "noradId": "54003",
    "tle": [
      "1 54003C 22125AR  26035.18659722 -.00003223  00000+0 -20216-3 0   356",
      "2 54003  53.2172   4.3220 0001379  90.4793  49.5996 15.08829059    17"
    ]
  },
  "54004": {
    "noradId": "54004",
    "tle": [
      "1 54004C 22125AS  26035.18659722  .00003755  00000+0  23553-3 0   352",
      "2 54004  53.2176   4.2070 0001339  87.9969 112.1380 15.08826588    14"
    ]
  },
  "54005": {
    "noradId": "54005",
    "tle": [
      "1 54005C 22125AT  26035.18729167 -.00016581  00000+0 -10402-2 0   355",
      "2 54005  53.2170   4.2399 0001324  84.3721  99.5308 15.08839606    17"
    ]
  },
  "54006": {
    "noradId": "54006",
    "tle": [
      "1 54006C 22125AU  26035.18868056  .00011369  00000+0  71277-3 0   352",
      "2 54006  53.2180   4.0853 0001369  89.2379 182.1883 15.08834254    15"
    ]
  },
  "54007": {
    "noradId": "54007",
    "tle": [
      "1 54007C 22125AV  26035.19354167 -.00002218  00000+0 -13910-3 0   352",
      "2 54007  53.2174   4.1394 0001426  97.2928 160.6239 15.08831035    13"
    ]
  },
  "54008": {
    "noradId": "54008",
    "tle": [
      "1 54008C 22125AW  26035.19215278 -.00000515  00000+0 -32272-4 0   353",
      "2 54008  53.2173 354.1397 0001429  83.8779 181.5007 15.08828563    19"
    ]
  },
  "54009": {
    "noradId": "54009",
    "tle": [
      "1 54009C 22125AX  26035.19354167 -.00009018  00000+0 -56559-3 0   355",
      "2 54009  53.2178   4.0977 0001383  90.7386 187.1879 15.08840220    13"
    ]
  },
  "54010": {
    "noradId": "54010",
    "tle": [
      "1 54010C 22125AY  26035.19145833 -.00008060  00000+0 -50542-3 0   357",
      "2 54010  53.2172 354.0739 0001440  93.3232 208.3030 15.08845054    11"
    ]
  },
  "54011": {
    "noradId": "54011",
    "tle": [
      "1 54011C 22125AZ  26035.19006944  .00002156  00000+0  13522-3 0   352",
      "2 54011  53.2176 354.6590 0001299  89.5970 264.1054 15.08831037    17"
    ]
  },
  "54012": {
    "noradId": "54012",
    "tle": [
      "1 54012C 22125BA  26035.19284722 -.00004101  00000+0 -25724-3 0   356",
      "2 54012  53.2184 354.3691 0001524  89.4020  59.5887 15.08828335    19"
    ]
  },
  "54013": {
    "noradId": "54013",
    "tle": [
      "1 54013C 22125BB  26035.19076389  .00013944  00000+0  87498-3 0   354",
      "2 54013  53.2185 354.4568 0001475  81.3641  16.3560 15.08800785    18"
    ]
  },
  "54015": {
    "noradId": "54015",
    "tle": [
      "1 54015C 22125BD  26035.19145833  .00001090  00000+0  68367-4 0   351",
      "2 54015  53.2185 354.4121 0001347  93.7779  27.6386 15.08828757    12"
    ]
  },
  "54051": {
    "noradId": "54051",
    "tle": [
      "1 54051C 22136A   26035.19006944  .00011501  00000+0  72138-3 0   350",
      "2 54051  53.2153 134.7552 0001427  90.1989 253.4228 15.08816069    14"
    ]
  },
  "54052": {
    "noradId": "54052",
    "tle": [
      "1 54052C 22136B   26035.19006944 -.00017131  00000+0 -10742-2 0   350",
      "2 54052  53.2144  94.3221 0001436  86.4334 157.4788 15.08857020    17"
    ]
  },
  "54053": {
    "noradId": "54053",
    "tle": [
      "1 54053C 22136C   26035.18034722 -.00004255  00000+0 -26683-3 0   350",
      "2 54053  53.2154 134.7581 0001245  84.6651 226.1666 15.08841133    14"
    ]
  },
  "54054": {
    "noradId": "54054",
    "tle": [
      "1 54054C 22136D   26035.19354167 -.00000374  00000+0 -23456-4 0   354",
      "2 54054  53.2156 134.6186 0001406  87.9089 334.6590 15.08846164    17"
    ]
  },
  "54055": {
    "noradId": "54055",
    "tle": [
      "1 54055C 22136E   26035.18659722  .00003534  00000+0  22160-3 0   358",
      "2 54055  53.2152 134.6913 0001390  88.4638 276.3475 15.08834725    14"
    ]
  },
  "54056": {
    "noradId": "54056",
    "tle": [
      "1 54056C 22136F   26035.18659722 -.00015412  00000+0 -96647-3 0   350",
      "2 54056  53.2153 134.1112 0001333  86.7329 218.4622 15.08852874    13"
    ]
  },
  "54058": {
    "noradId": "54058",
    "tle": [
      "1 54058C 22136H   26035.19284722  .00009951  00000+0  62411-3 0   358",
      "2 54058  53.2158 134.5037 0001335  83.8204  35.0769 15.08820809    10"
    ]
  },
  "54059": {
    "noradId": "54059",
    "tle": [
      "1 54059C 22136J   26035.19145833  .00011828  00000+0  74198-3 0   359",
      "2 54059  53.2160 134.5494 0001353  87.1559   4.1520 15.08813409    11"
    ]
  }
}